{
  "fetched_at": "2026-07-17T01:29:41.781014+00:00",
  "satellites": {
    "57166": {
      "name": "Meteor M2-3",
      "tle_line1": "1 57166U 23091A   26197.60860822 -.00000018  00000+0  10999-4 0  9998",
      "tle_line2": "2 57166  98.6067 251.9824 0005139  87.1126 273.0642 14.24049000158706"
    },
    "59051": {
      "name": "Meteor M2-4",
      "tle_line1": "1 59051U 24039A   26197.65670891 -.00000017  00000+0  11947-4 0  9999",
      "tle_line2": "2 59051  98.7026 156.5870 0008262  85.1519 275.0602 14.22432221123453"
    },
    "38771": {
      "name": "MetOp-B",
      "tle_line1": "1 38771U 12049A   26197.61299479  .00000039  00000+0  37851-4 0  9993",
      "tle_line2": "2 38771  98.6489 248.5228 0001124 247.2122 112.8937 14.21446642717449"
    },
    "43689": {
      "name": "MetOp-C",
      "tle_line1": "1 43689U 18087A   26196.57486992  .00000053  00000+0  44045-4 0  9996",
      "tle_line2": "2 43689  98.6630 255.6574 0002216  93.2289 266.9142 14.21519167398863"
    },
    "60543": {
      "name": "Arctic Weather Satellite",
      "tle_line1": "1 60543U 24149CD  26197.43739775  .00000297  00000+0  36544-4 0  9991",
      "tle_line2": "2 60543  97.6791 267.0651 0002789  47.8341 312.3113 14.89804552103654"
    }
  }
}